

*******************************************************************************
Ephemeris / WWW_USER Wed Mar 13 09:35:05 2024 Pasadena, USA      / Horizons
*******************************************************************************
Target body name: SOHO (spacecraft) (-21)         {source: SOHO_merged}
Center body name: Earth (399)                     {source: DE441}
Center-site name: BODY CENTER
*******************************************************************************
Start time      : A.D. 1996-Jan-01 00:00:00.0000 TDB
Stop  time      : A.D. 1996-May-01 00:00:00.0000 TDB
Step-size       : 30 minutes
*******************************************************************************
Center geodetic : 0.0, 0.0, 0.0                   {E-lon(deg),Lat(deg),Alt(km)}
Center cylindric: 0.0, 0.0, 0.0                   {E-lon(deg),Dxy(km),Dz(km)}
Center radii    : 6378.137, 6378.137, 6356.752 km {Equator_a, b, pole_c}
Output units    : KM-S
Calendar mode   : Mixed Julian/Gregorian
Output type     : GEOMETRIC cartesian states
Output format   : 2 (position and velocity)
EOP file        : eop.240312.p240605
EOP coverage    : DATA-BASED 1962-JAN-20 TO 2024-MAR-12. PREDICTS-> 2024-JUN-04
Reference frame : ICRF
*******************************************************************************
            JDTDB,            Calendar Date (TDB),                      X,                      Y,                      Z,                     VX,                     VY,                     VZ,
**************************************************************************************************************************************************************************************************
$$SOE
2450200.750000000, A.D. 1996-Apr-27 06:00:00.0000,  7.200733396729246E+05,  1.283251160131888E+06,  5.315252561933014E+05, -2.043896669577889E-01,  1.903505818663697E-01,  2.997821279090320E-02,
2450200.770833333, A.D. 1996-Apr-27 06:30:00.0000,  7.197055238112820E+05,  1.283593576424960E+06,  5.315791509365846E+05, -2.042950773251590E-01,  1.901512825240761E-01,  2.990270940453472E-02,
2450200.791666667, A.D. 1996-Apr-27 07:00:00.0000,  7.193378786765576E+05,  1.283935687983019E+06,  5.316329050137730E+05, -2.042001827987417E-01,  1.899521692818190E-01,  2.982729858509415E-02,
2450200.812500000, A.D. 1996-Apr-27 07:30:00.0000,  7.189704021912285E+05,  1.284277399182437E+06,  5.316865297547487E+05, -2.041050921333689E-01,  1.897533591444338E-01,  2.975199634237996E-02,
2450200.833333333, A.D. 1996-Apr-27 08:00:00.0000,  7.186030966821349E+05,  1.284618808399952E+06,  5.317400147113047E+05, -2.040097940419374E-01,  1.895547572164968E-01,  2.967689310834965E-02,
2450200.854166667, A.D. 1996-Apr-27 08:30:00.0000,  7.182359698419247E+05,  1.284959816280192E+06,  5.317933690809704E+05, -2.039142045732026E-01,  1.893564515758504E-01,  2.960179304516197E-02,
2450200.875000000, A.D. 1996-Apr-27 09:00:00.0000,  7.178690045691087E+05,  1.285300435116360E+06,  5.318465840391463E+05, -2.038183160842274E-01,  1.891583422411860E-01,  2.952689471342091E-02,
2450200.895833333, A.D. 1996-Apr-27 09:30:00.0000,  7.175022183548753E+05,  1.285640745294302E+06,  5.318996684088119E+05, -2.037222289325260E-01,  1.889604403325788E-01,  2.945208135088061E-02,
2450200.916666667, A.D. 1996-Apr-27 10:00:00.0000,  7.171356029818421E+05,  1.285980760779283E+06,  5.319526133669878E+05, -2.036259308248935E-01,  1.887628284244671E-01,  2.937738050761235E-02,
2450200.937500000, A.D. 1996-Apr-27 10:30:00.0000,  7.167691666299276E+05,  1.286320274150707E+06,  5.320054277366534E+05, -2.035293427329661E-01,  1.885655118004219E-01,  2.930276716127269E-02,
2450200.958333333, A.D. 1996-Apr-27 11:00:00.0000,  7.164029007455966E+05,  1.286659577479987E+06,  5.320581026948295E+05, -2.034324577694709E-01,  1.883684026489817E-01,  2.922826880293563E-02,
2450200.979166667, A.D. 1996-Apr-27 11:30:00.0000,  7.160368147653051E+05,  1.286998398429556E+06,  5.321106470644949E+05, -2.033354537929355E-01,  1.881715007403747E-01,  2.915397398173601E-02,
2450201.000000000, A.D. 1996-Apr-27 12:00:00.0000,  7.156708981609314E+05,  1.287337015084785E+06,  5.321630521373492E+05, -2.032380716054413E-01,  1.879748890622872E-01,  2.907976553231337E-02,
2450201.020833333, A.D. 1996-Apr-27 12:30:00.0000,  7.153051518102241E+05,  1.287675118877086E+06,  5.322153366407421E+05, -2.031404760768784E-01,  1.877784760032565E-01,  2.900555568798905E-02,
2450201.041666667, A.D. 1996-Apr-27 13:00:00.0000,  7.149395865725388E+05,  1.288012936875006E+06,  5.322674805052580E+05, -2.030426853921749E-01,  1.875823658658722E-01,  2.893165165124010E-02,
2450201.062500000, A.D. 1996-Apr-27 13:30:00.0000,  7.145741992416432E+05,  1.288350451962935E+06,  5.323194852497471E+05, -2.029446933381842E-01,  1.873864639572654E-01,  2.885775046059901E-02,
2450201.083333333, A.D. 1996-Apr-27 14:00:00.0000,  7.142089838639309E+05,  1.288687563126822E+06,  5.323713601093284E+05, -2.028464074024503E-01,  1.871908522791784E-01,  2.878394452411772E-02,
2450201.104166667, A.D. 1996-Apr-27 14:30:00.0000,  7.138439572951294E+05,  1.289024378381777E+06,  5.324231044579245E+05, -2.027478128598315E-01,  1.869954392008180E-01,  2.871033639630054E-02,
2450201.125000000, A.D. 1996-Apr-27 15:00:00.0000,  7.134790915296922E+05,  1.289360788437540E+06,  5.324747185705330E+05, -2.026490221944576E-01,  1.868003348901812E-01,  2.863683904737380E-02,
2450201.145833333, A.D. 1996-Apr-27 15:30:00.0000,  7.131144158162419E+05,  1.289696791407791E+06,  5.325262029569007E+05, -2.025500254798328E-01,  1.866055268734607E-01,  2.856343174160565E-02,
2450201.166666667, A.D. 1996-Apr-27 16:00:00.0000,  7.127499198343310E+05,  1.290032514105005E+06,  5.325775480508241E+05, -2.024507409133854E-01,  1.864109200656951E-01,  2.849012973204517E-02,
2450201.187500000, A.D. 1996-Apr-27 16:30:00.0000,  7.123855933465690E+05,  1.290367916876219E+06,  5.326287635144620E+05, -2.023512402718400E-01,  1.862165156495190E-01,  2.841692379556406E-02,
2450201.208333333, A.D. 1996-Apr-27 17:00:00.0000,  7.120214466385908E+05,  1.290702934716428E+06,  5.326798476106812E+05, -2.022515535333865E-01,  1.860224002115367E-01,  2.834391566774713E-02,
2450201.229166667, A.D. 1996-Apr-27 17:30:00.0000,  7.116574908271652E+05,  1.291037542218948E+06,  5.327308015060497E+05, -2.021515589907675E-01,  1.858285849611711E-01,  2.827101831882052E-02,
2450201.250000000, A.D. 1996-Apr-27 18:00:00.0000,  7.112937046693880E+05,  1.291371852580115E+06,  5.327816269860774E+05, -2.020513683060634E-01,  1.856349869601550E-01,  2.819821101305264E-02,
2450201.270833333, A.D. 1996-Apr-27 18:30:00.0000,  7.109301076262909E+05,  1.291705867835069E+06,  5.328323217090424E+05, -2.019509762714021E-01,  1.854415846576293E-01,  2.812550900349224E-02,
2450201.291666667, A.D. 1996-Apr-27 19:00:00.0000,  7.105666823846395E+05,  1.292039479018284E+06,  5.328828760407845E+05, -2.018502854256796E-01,  1.852485647345655E-01,  2.805290306701132E-02,
2450201.312500000, A.D. 1996-Apr-27 19:30:00.0000,  7.102034462830621E+05,  1.292372788235800E+06,  5.329333092135157E+05, -2.017493947441039E-01,  1.850556600875367E-01,  2.798049358171667E-02,
2450201.333333333, A.D. 1996-Apr-27 20:00:00.0000,  7.098403889478003E+05,  1.292705695886014E+06,  5.329836043046915E+05, -2.016482966526714E-01,  1.848631413274572E-01,  2.790818643984436E-02,
2450201.354166667, A.D. 1996-Apr-27 20:30:00.0000,  7.094775127475231E+05,  1.293038312514646E+06,  5.330337789438318E+05, -2.015469083500484E-01,  1.846708382090682E-01,  2.783599046772513E-02,
2450201.375000000, A.D. 1996-Apr-27 21:00:00.0000,  7.091148166436024E+05,  1.293370534848284E+06,  5.330838140169985E+05, -2.014453151609041E-01,  1.844788227754778E-01,  2.776388827493945E-02,
2450201.395833333, A.D. 1996-Apr-27 21:30:00.0000,  7.087523106944786E+05,  1.293702443882571E+06,  5.331337280293920E+05, -2.013435135395998E-01,  1.842870245637682E-01,  2.769188233845871E-02,
2450201.416666667, A.D. 1996-Apr-27 22:00:00.0000,  7.083899844761895E+05,  1.294033951552118E+06,  5.331835124157597E+05, -2.012414252531765E-01,  1.840955128694803E-01,  2.762007421064172E-02,
2450201.437500000, A.D. 1996-Apr-27 22:30:00.0000,  7.080278377685243E+05,  1.294365162143308E+06,  5.332331574905462E+05, -2.011391334215092E-01,  1.839042011679286E-01,  2.754837688104516E-02,
2450201.458333333, A.D. 1996-Apr-27 23:00:00.0000,  7.076658814680331E+05,  1.294695980963275E+06,  5.332826815048729E+05, -2.010366427399337E-01,  1.837132019702745E-01,  2.747676351850661E-02,
2450201.479166667, A.D. 1996-Apr-27 23:30:00.0000,  7.073041053641124E+05,  1.295026491141216E+06,  5.333320754002413E+05, -2.009339446485011E-01,  1.835224900459647E-01,  2.740526380269249E-02,
2450201.500000000, A.D. 1996-Apr-28 00:00:00.0000,  7.069425194169219E+05,  1.295356706396169E+06,  5.333813408822012E+05, -2.008309563458778E-01,  1.833320734219223E-01,  2.733395918854744E-02,
2450201.520833333, A.D. 1996-Apr-28 00:30:00.0000,  7.065811125718865E+05,  1.295686517579386E+06,  5.334304750911654E+05, -2.007277645142095E-01,  1.831418642898125E-01,  2.726276184274981E-02,
2450201.541666667, A.D. 1996-Apr-28 01:00:00.0000,  7.062198952710312E+05,  1.296016026796898E+06,  5.334794897259383E+05, -2.006243740626575E-01,  1.829518574712189E-01,  2.719164849954156E-02,
2450201.562500000, A.D. 1996-Apr-28 01:30:00.0000,  7.058588693402304E+05,  1.296345134466442E+06,  5.335283738618615E+05, -2.005206793062144E-01,  1.827622510116552E-01,  2.712064295698040E-02,
2450201.583333333, A.D. 1996-Apr-28 02:00:00.0000,  7.054980232346870E+05,  1.296673945057634E+06,  5.335771179549814E+05, -2.004168864526322E-01,  1.825728414662964E-01,  2.704974445094822E-02,
2450201.604166667, A.D. 1996-Apr-28 02:30:00.0000,  7.051373672644943E+05,  1.297002363877600E+06,  5.336257520044838E+05, -2.003127956069087E-01,  1.823837313127135E-01,  2.697904359230759E-02,
